CCSDS_OEM_VERS = 1.0
CREATION_DATE  = 2017-05-11T10:59:41
ORIGINATOR     = GMAT USER

META_START
OBJECT_NAME          = MOPSSat_alt_35785_km_RAAN_0_053
OBJECT_ID            = SatId
CENTER_NAME          = Earth
REF_FRAME            = EME2000
TIME_SYSTEM          = UTC
START_TIME           = 2017-01-01T00:00:00.000
USEABLE_START_TIME   = 2017-01-01T00:00:00.000
USEABLE_STOP_TIME    = 2017-01-02T00:00:00.000
STOP_TIME            = 2017-01-02T00:00:00.000
INTERPOLATION        = Lagrange
INTERPOLATION_DEGREE = 7 
META_STOP


                                                                                   

2017-01-01T04:07:30.000   1.975686706161941e+04   3.724491948191445e+04  -6.384669128695905e-02  -2.716343907875882e+00   1.441018415792112e+00   4.248291889867641e-06
2017-01-01T04:07:40.000   1.972969837059148e+04   3.725931975936208e+04  -6.380407699047363e-02  -2.717394111584328e+00   1.439036975116054e+00   4.274571047227743e-06
2017-01-01T04:07:50.000   1.970251918447953e+04   3.727370021872083e+04  -6.376119979540934e-02  -2.718442869848371e+00   1.437054769177902e+00   4.300871514790004e-06
2017-01-01T04:08:00.000   1.967532951774061e+04   3.728806085234291e+04  -6.371805948880904e-02  -2.719490182110248e+00   1.435071799032174e+00   4.327193262516883e-06
2017-01-01T04:08:10.000   1.964812938485124e+04   3.730240165258310e+04  -6.367465585803124e-02  -2.720536047812382e+00   1.433088065734814e+00   4.353536260336022e-06
2017-01-01T04:08:20.000   1.962091880057039e+04   3.731672261166329e+04  -6.363098869120236e-02  -2.721580466387508e+00   1.431103570362360e+00   4.379900477905130e-06
2017-01-01T04:08:30.000   1.959369777958579e+04   3.733102372185593e+04  -6.358705777662173e-02  -2.722623437272042e+00   1.429118313986161e+00   4.406285884934891e-06
2017-01-01T04:08:40.000   1.956646633665584e+04   3.734530497540996e+04  -6.354286290299635e-02  -2.723664959900693e+00   1.427132297682712e+00   4.432692451058967e-06
2017-01-01T04:08:50.000   1.953922448598467e+04   3.735956636487868e+04  -6.349840385842775e-02  -2.724705033730362e+00   1.425145522488091e+00   4.459120146418809e-06
2017-01-01T04:09:00.000   1.951197224184846e+04   3.737380788279089e+04  -6.345368043142553e-02  -2.725743658216167e+00   1.423157989443630e+00   4.485568941077611e-06
2017-01-01T04:09:10.000   1.948470961843393e+04   3.738802952173612e+04  -6.340869241064871e-02  -2.726780832817651e+00   1.421169699584132e+00   4.512038805169346e-06
2017-01-01T04:09:20.000   1.945743663027236e+04   3.740223127413511e+04  -6.336343958559428e-02  -2.727816556982052e+00   1.419180653969533e+00   4.538529708499178e-06
2017-01-01T04:09:30.000   1.943015329188160e+04   3.741641313242961e+04  -6.331792174603411e-02  -2.728850830158137e+00   1.417190853658789e+00   4.565041620869378e-06
2017-01-01T04:09:40.000   1.940285961784588e+04   3.743057508903979e+04  -6.327213868213939e-02  -2.729883651793101e+00   1.415200299715698e+00   4.591574512009026e-06
2017-01-01T04:09:50.000   1.937555562279481e+04   3.744471713637719e+04  -6.322609018446458e-02  -2.730915021333511e+00   1.413208993207366e+00   4.618128351575396e-06
2017-01-01T04:10:00.000   1.934824132137554e+04   3.745883926685758e+04  -6.317977604388542e-02  -2.731944938226240e+00   1.411216935202178e+00   4.644703109199407e-06
2017-01-01T04:10:10.000   1.932091672824296e+04   3.747294147290623e+04  -6.313319605158486e-02  -2.732973401918854e+00   1.409224126769086e+00   4.671298754489483e-06
2017-01-01T04:10:20.000   1.929358185796236e+04   3.748702374700897e+04  -6.308634999889548e-02  -2.734000411863339e+00   1.407230568970505e+00   4.697915257139517e-06
2017-01-01T04:10:30.000   1.926623672507415e+04   3.750108608167779e+04  -6.303923767739945e-02  -2.735025967513585e+00   1.405236262867036e+00   4.724552586853657e-06
2017-01-01T04:10:40.000   1.923888134409385e+04   3.751512846945094e+04  -6.299185887893113e-02  -2.736050068325402e+00   1.403241209517465e+00   4.751210713350037e-06
2017-01-01T04:10:50.000   1.921151572944660e+04   3.752915090292576e+04  -6.294421339545431e-02  -2.737072713758908e+00   1.401245409973986e+00   4.777889606416959e-06
2017-01-01T04:11:00.000   1.918413989556515e+04   3.754315337470901e+04  -6.289630101923907e-02  -2.738093903274903e+00   1.399248865289350e+00   4.804589235824624e-06
2017-01-01T04:11:10.000   1.915675385689990e+04   3.755713587741186e+04  -6.284812154288168e-02  -2.739113636334518e+00   1.397251576517594e+00   4.831309571313376e-06
2017-01-01T04:11:20.000   1.912935762794549e+04   3.757109840363491e+04  -6.279967475933571e-02  -2.740131912398103e+00   1.395253544715980e+00   4.858050582571628e-06
2017-01-01T04:11:30.000   1.910195122326345e+04   3.758504094595836e+04  -6.275096046197115e-02  -2.741148730924531e+00   1.393254770946650e+00   4.884812239210353e-06
2017-01-01T04:11:40.000   1.907453465740129e+04   3.759896349698252e+04  -6.270197844442320e-02  -2.742164091374134e+00   1.391255256270725e+00   4.911594510842011e-06
2017-01-01T04:11:50.000   1.904710794525473e+04   3.761286604914631e+04  -6.265272850126412e-02  -2.743177993195477e+00   1.389255001774717e+00   4.938397366729130e-06
2017-01-01T04:12:00.000   1.901967110162898e+04   3.762674859494757e+04  -6.260321042719522e-02  -2.744190435841425e+00   1.387254008538541e+00   4.965220776209304e-06
2017-01-01T04:12:10.000   1.899222414140172e+04   3.764061112686099e+04  -6.255342401734473e-02  -2.745201418763149e+00   1.385252277647396e+00   4.992064708538753e-06
2017-01-01T04:12:20.000   1.896476707889189e+04   3.765445363765715e+04  -6.250336906612580e-02  -2.746210941433400e+00   1.383249810145732e+00   5.018929133497452e-06
2017-01-01T04:12:30.000   1.893729992848927e+04   3.766827612008400e+04  -6.245304536837352e-02  -2.747219003323288e+00   1.381246607083164e+00   5.045814020787044e-06
2017-01-01T04:12:40.000   1.890982270451191e+04   3.768207856693953e+04  -6.240245271909230e-02  -2.748225603907562e+00   1.379242669504076e+00   5.072719340164367e-06
2017-01-01T04:12:50.000   1.888233542156069e+04   3.769586097089017e+04  -6.235159091407429e-02  -2.749230742651378e+00   1.377237998473482e+00   5.099645061114809e-06
2017-01-01T04:13:00.000   1.885483809425646e+04   3.770962332460632e+04  -6.230045974945105e-02  -2.750234419020187e+00   1.375232595057850e+00   5.126591153088715e-06
2017-01-01T04:13:10.000   1.882733073723958e+04   3.772336562076129e+04  -6.224905902167904e-02  -2.751236632479650e+00   1.373226460325069e+00   5.153557585509780e-06
2017-01-01T04:13:20.000   1.879981336543561e+04   3.773708785190182e+04  -6.219738852806948e-02  -2.752237382486196e+00   1.371219595363832e+00   5.180544327491572e-06
2017-01-01T04:13:30.000   1.877228599369787e+04   3.775079001062355e+04  -6.214544806608926e-02  -2.753236668499822e+00   1.369212001257561e+00   5.207551348210911e-06
2017-01-01T04:13:40.000   1.874474863694809e+04   3.776447208950154e+04  -6.209323743363171e-02  -2.754234489979023e+00   1.367203679094667e+00   5.234578616761839e-06
2017-01-01T04:13:50.000   1.871720130955503e+04   3.777813408139915e+04  -6.204075642784079e-02  -2.755230846403321e+00   1.365194629923233e+00   5.261626102787059e-06
2017-01-01T04:14:00.000   1.868964402595569e+04   3.779177597915899e+04  -6.198800484628469e-02  -2.756225737250726e+00   1.363184854796321e+00   5.288693775846789e-06
2017-01-01T04:14:10.000   1.866207680051513e+04   3.780539777567318e+04  -6.193498248669593e-02  -2.757219162002857e+00   1.361174354761744e+00   5.315781605564026e-06
2017-01-01T04:14:20.000   1.863449964788204e+04   3.781899946370417e+04  -6.188168914762052e-02  -2.758211120131876e+00   1.359163130888000e+00   5.342889561255288e-06
2017-01-01T04:14:30.000   1.860691258272509e+04   3.783258103601849e+04  -6.182812462794672e-02  -2.759201611110243e+00   1.357151184245045e+00   5.370017612209429e-06
2017-01-01T04:14:40.000   1.857931561973238e+04   3.784614248538574e+04  -6.177428872689052e-02  -2.760190634410644e+00   1.355138515904252e+00   5.397165727681066e-06
2017-01-01T04:14:50.000   1.855170877387809e+04   3.785968380445077e+04  -6.172018124454913e-02  -2.761178189496669e+00   1.353125126957859e+00   5.424333876647909e-06
2017-01-01T04:15:00.000   1.852409206006381e+04   3.787320498590689e+04  -6.166580198116977e-02  -2.762164275835435e+00   1.351111018492809e+00   5.451522028143914e-06
2017-01-01T04:15:10.000   1.849646549325968e+04   3.788670602242729e+04  -6.161115073743362e-02  -2.763148892892599e+00   1.349096191601043e+00   5.478730151127812e-06
2017-01-01T04:15:20.000   1.846882908788098e+04   3.790018690696981e+04  -6.155622731322413e-02  -2.764132040154573e+00   1.347080647334041e+00   5.505958215075927e-06
2017-01-01T04:15:30.000   1.844118285841141e+04   3.791364763247198e+04  -6.150103150885634e-02  -2.765113717106294e+00   1.345064386748265e+00   5.533206189389670e-06
2017-01-01T04:15:40.000   1.841352681926237e+04   3.792708819192040e+04  -6.144556312480406e-02  -2.766093923236270e+00   1.343047410894911e+00   5.560474043526392e-06
2017-01-01T04:15:50.000   1.838586098512973e+04   3.794050857817380e+04  -6.138982196238087e-02  -2.767072658023690e+00   1.341029720845917e+00   5.587761746669700e-06
2017-01-01T04:16:00.000   1.835818537072932e+04   3.795390878409519e+04  -6.133380782324541e-02  -2.768049920948051e+00   1.339011317674680e+00   5.615069267968293e-06
2017-01-01T04:16:10.000   1.833049999079637e+04   3.796728880255071e+04  -6.127752050938671e-02  -2.769025711489083e+00   1.336992202456011e+00   5.642396576543969e-06
2017-01-01T04:16:20.000   1.830280486035302e+04   3.798064862628376e+04  -6.122095982370156e-02  -2.770000029117557e+00   1.334972376285646e+00   5.669743641208017e-06
2017-01-01T04:16:30.000   1.827509999434854e+04   3.799398824808555e+04  -6.116412556923132e-02  -2.770972873307744e+00   1.332951840254001e+00   5.697110430835379e-06
